[{"OBJECT_NAME":"STARLINK-31452","OBJECT_ID":"2024-073S","EPOCH":"2025-07-28T22:41:58.899840","MEAN_MOTION":15.27560637,"ECCENTRICITY":0.000109,"INCLINATION":43.0022,"RA_OF_ASC_NODE":141.8828,"ARG_OF_PERICENTER":241.5907,"MEAN_ANOMALY":118.4834,"EPHEMERIS_TYPE":0,"CLASSIFICATION_TYPE":"U","NORAD_CAT_ID":59527,"ELEMENT_SET_NO":999,"REV_AT_EPOCH":7195,"BSTAR":8.4836e-5,"MEAN_MOTION_DOT":2.072e-5,"MEAN_MOTION_DDOT":0},{"OBJECT_NAME":"STARLINK-31618","OBJECT_ID":"2024-073T","EPOCH":"2025-07-29T11:43:10.567200","MEAN_MOTION":15.30653502,"ECCENTRICITY":0.000233,"INCLINATION":43.0004,"RA_OF_ASC_NODE":137.3564,"ARG_OF_PERICENTER":175.0529,"MEAN_ANOMALY":185.0347,"EPHEMERIS_TYPE":0,"CLASSIFICATION_TYPE":"U","NORAD_CAT_ID":59528,"ELEMENT_SET_NO":999,"REV_AT_EPOCH":7205,"BSTAR":0.00064003,"MEAN_MOTION_DOT":0.0001914,"MEAN_MOTION_DDOT":0},{"OBJECT_NAME":"STARLINK-31513","OBJECT_ID":"2024-073U","EPOCH":"2025-07-29T03:21:25.134336","MEAN_MOTION":15.2758906,"ECCENTRICITY":0.0001148,"INCLINATION":43.0011,"RA_OF_ASC_NODE":137.2611,"ARG_OF_PERICENTER":266.4915,"MEAN_ANOMALY":93.5805,"EPHEMERIS_TYPE":0,"CLASSIFICATION_TYPE":"U","NORAD_CAT_ID":59529,"ELEMENT_SET_NO":999,"REV_AT_EPOCH":7202,"BSTAR":7.4946e-5,"MEAN_MOTION_DOT":1.801e-5,"MEAN_MOTION_DDOT":0},{"OBJECT_NAME":"STARLINK-31392","OBJECT_ID":"2024-073V","EPOCH":"2025-07-29T12:23:28.152384","MEAN_MOTION":15.2758085,"ECCENTRICITY":0.0001083,"INCLINATION":43.0039,"RA_OF_ASC_NODE":138.422,"ARG_OF_PERICENTER":272.6294,"MEAN_ANOMALY":87.4434,"EPHEMERIS_TYPE":0,"CLASSIFICATION_TYPE":"U","NORAD_CAT_ID":59530,"ELEMENT_SET_NO":999,"REV_AT_EPOCH":7327,"BSTAR":4.6251e-5,"MEAN_MOTION_DOT":1.011e-5,"MEAN_MOTION_DDOT":0},{"OBJECT_NAME":"STARLINK-31619","OBJECT_ID":"2024-073W","EPOCH":"2025-07-29T12:03:07.309152","MEAN_MOTION":15.27587503,"ECCENTRICITY":4.86e-5,"INCLINATION":43.0032,"RA_OF_ASC_NODE":138.3221,"ARG_OF_PERICENTER":276.0135,"MEAN_ANOMALY":84.0662,"EPHEMERIS_TYPE":0,"CLASSIFICATION_TYPE":"U","NORAD_CAT_ID":59531,"ELEMENT_SET_NO":999,"REV_AT_EPOCH":7316,"BSTAR":-7.0145e-5,"MEAN_MOTION_DOT":-2.192e-5,"MEAN_MOTION_DDOT":0},{"OBJECT_NAME":"STARLINK-31624","OBJECT_ID":"2024-073X","EPOCH":"2025-07-29T22:00:01.999584","MEAN_MOTION":15.60275882,"ECCENTRICITY":0.0017882,"INCLINATION":42.9979,"RA_OF_ASC_NODE":109.2279,"ARG_OF_PERICENTER":232.5456,"MEAN_ANOMALY":157.4092,"EPHEMERIS_TYPE":0,"CLASSIFICATION_TYPE":"U","NORAD_CAT_ID":59532,"ELEMENT_SET_NO":999,"REV_AT_EPOCH":598,"BSTAR":0.0037845,"MEAN_MOTION_DOT":0.00332919,"MEAN_MOTION_DDOT":0},{"OBJECT_NAME":"STARLINK-31509","OBJECT_ID":"2024-073Y","EPOCH":"2025-07-29T03:35:32.472960","MEAN_MOTION":15.2758341,"ECCENTRICITY":0.0001275,"INCLINATION":43.0013,"RA_OF_ASC_NODE":140.8428,"ARG_OF_PERICENTER":267.6929,"MEAN_ANOMALY":92.3777,"EPHEMERIS_TYPE":0,"CLASSIFICATION_TYPE":"U","NORAD_CAT_ID":59533,"ELEMENT_SET_NO":999,"REV_AT_EPOCH":7198,"BSTAR":4.2434e-5,"MEAN_MOTION_DOT":9.06e-6,"MEAN_MOTION_DDOT":0},{"OBJECT_NAME":"STARLINK-31734","OBJECT_ID":"2024-074A","EPOCH":"2025-07-29T05:18:06.084000","MEAN_MOTION":15.27582403,"ECCENTRICITY":9.22e-5,"INCLINATION":43.002,"RA_OF_ASC_NODE":154.6661,"ARG_OF_PERICENTER":287.3227,"MEAN_ANOMALY":72.7524,"EPHEMERIS_TYPE":0,"CLASSIFICATION_TYPE":"U","NORAD_CAT_ID":59534,"ELEMENT_SET_NO":999,"REV_AT_EPOCH":7313,"BSTAR":-0.00010526,"MEAN_MOTION_DOT":-3.157e-5,"MEAN_MOTION_DDOT":0},{"OBJECT_NAME":"STARLINK-31738","OBJECT_ID":"2024-074B","EPOCH":"2025-07-29T13:33:21.567744","MEAN_MOTION":15.27571855,"ECCENTRICITY":9.17e-5,"INCLINATION":43.0005,"RA_OF_ASC_NODE":159.7855,"ARG_OF_PERICENTER":271.5358,"MEAN_ANOMALY":88.5389,"EPHEMERIS_TYPE":0,"CLASSIFICATION_TYPE":"U","NORAD_CAT_ID":59535,"ELEMENT_SET_NO":999,"REV_AT_EPOCH":7193,"BSTAR":8.1119e-5,"MEAN_MOTION_DOT":1.97e-5,"MEAN_MOTION_DDOT":0},{"OBJECT_NAME":"STARLINK-31721","OBJECT_ID":"2024-074C","EPOCH":"2025-07-29T13:36:22.677696","MEAN_MOTION":15.27585011,"ECCENTRICITY":9.01e-5,"INCLINATION":43.0006,"RA_OF_ASC_NODE":163.3403,"ARG_OF_PERICENTER":273.6877,"MEAN_ANOMALY":86.3871,"EPHEMERIS_TYPE":0,"CLASSIFICATION_TYPE":"U","NORAD_CAT_ID":59536,"ELEMENT_SET_NO":999,"REV_AT_EPOCH":7189,"BSTAR":-6.4743e-6,"MEAN_MOTION_DOT":-4.4e-6,"MEAN_MOTION_DDOT":0},{"OBJECT_NAME":"STARLINK-31737","OBJECT_ID":"2024-074D","EPOCH":"2025-07-29T13:56:44.238912","MEAN_MOTION":15.27576404,"ECCENTRICITY":9.48e-5,"INCLINATION":43.0028,"RA_OF_ASC_NODE":163.4522,"ARG_OF_PERICENTER":271.0894,"MEAN_ANOMALY":88.9849,"EPHEMERIS_TYPE":0,"CLASSIFICATION_TYPE":"U","NORAD_CAT_ID":59537,"ELEMENT_SET_NO":999,"REV_AT_EPOCH":7307,"BSTAR":2.4381e-5,"MEAN_MOTION_DOT":4.09e-6,"MEAN_MOTION_DDOT":0},{"OBJECT_NAME":"STARLINK-31725","OBJECT_ID":"2024-074E","EPOCH":"2025-07-29T04:39:22.808736","MEAN_MOTION":15.27576738,"ECCENTRICITY":0.0001035,"INCLINATION":43.0012,"RA_OF_ASC_NODE":155.0382,"ARG_OF_PERICENTER":268.5112,"MEAN_ANOMALY":91.5621,"EPHEMERIS_TYPE":0,"CLASSIFICATION_TYPE":"U","NORAD_CAT_ID":59538,"ELEMENT_SET_NO":999,"REV_AT_EPOCH":7195,"BSTAR":2.2678e-6,"MEAN_MOTION_DOT":-2.0e-6,"MEAN_MOTION_DDOT":0},{"OBJECT_NAME":"STARLINK-31539","OBJECT_ID":"2024-074F","EPOCH":"2025-07-29T14:13:23.299392","MEAN_MOTION":15.27580224,"ECCENTRICITY":0.0002069,"INCLINATION":43.0037,"RA_OF_ASC_NODE":163.5372,"ARG_OF_PERICENTER":266.77,"MEAN_ANOMALY":93.2915,"EPHEMERIS_TYPE":0,"CLASSIFICATION_TYPE":"U","NORAD_CAT_ID":59539,"ELEMENT_SET_NO":999,"REV_AT_EPOCH":7189,"BSTAR":0.00010762,"MEAN_MOTION_DOT":2.7e-5,"MEAN_MOTION_DDOT":0},{"OBJECT_NAME":"STARLINK-31397","OBJECT_ID":"2024-074G","EPOCH":"2025-07-29T03:34:39.042336","MEAN_MOTION":15.27579078,"ECCENTRICITY":0.0001195,"INCLINATION":43.001,"RA_OF_ASC_NODE":166.2223,"ARG_OF_PERICENTER":261.6103,"MEAN_ANOMALY":98.4613,"EPHEMERIS_TYPE":0,"CLASSIFICATION_TYPE":"U","NORAD_CAT_ID":59540,"ELEMENT_SET_NO":999,"REV_AT_EPOCH":7182,"BSTAR":4.0297e-5,"MEAN_MOTION_DOT":8.47e-6,"MEAN_MOTION_DDOT":0},{"OBJECT_NAME":"STARLINK-31481","OBJECT_ID":"2024-074H","EPOCH":"2025-07-29T05:25:14.950272","MEAN_MOTION":15.2758561,"ECCENTRICITY":0.0001365,"INCLINATION":43.0009,"RA_OF_ASC_NODE":165.0806,"ARG_OF_PERICENTER":257.2484,"MEAN_ANOMALY":102.8216,"EPHEMERIS_TYPE":0,"CLASSIFICATION_TYPE":"U","NORAD_CAT_ID":59541,"ELEMENT_SET_NO":999,"REV_AT_EPOCH":7301,"BSTAR":9.3713e-5,"MEAN_MOTION_DOT":2.318e-5,"MEAN_MOTION_DDOT":0},{"OBJECT_NAME":"STARLINK-31540","OBJECT_ID":"2024-074J","EPOCH":"2025-07-29T21:32:42.453312","MEAN_MOTION":15.27591044,"ECCENTRICITY":0.0001116,"INCLINATION":43.0011,"RA_OF_ASC_NODE":161.5231,"ARG_OF_PERICENTER":278.7387,"MEAN_ANOMALY":81.3338,"EPHEMERIS_TYPE":0,"CLASSIFICATION_TYPE":"U","NORAD_CAT_ID":59542,"ELEMENT_SET_NO":999,"REV_AT_EPOCH":7194,"BSTAR":8.5577e-5,"MEAN_MOTION_DOT":2.094e-5,"MEAN_MOTION_DDOT":0},{"OBJECT_NAME":"STARLINK-31574","OBJECT_ID":"2024-074K","EPOCH":"2025-07-29T14:18:56.726496","MEAN_MOTION":15.27576954,"ECCENTRICITY":0.0001142,"INCLINATION":43.0016,"RA_OF_ASC_NODE":163.5617,"ARG_OF_PERICENTER":274.6258,"MEAN_ANOMALY":85.4463,"EPHEMERIS_TYPE":0,"CLASSIFICATION_TYPE":"U","NORAD_CAT_ID":59543,"ELEMENT_SET_NO":999,"REV_AT_EPOCH":7189,"BSTAR":4.1102e-5,"MEAN_MOTION_DOT":8.69e-6,"MEAN_MOTION_DDOT":0}]
