STARLINK-31452          
1 59527U 24073S   25209.94582060  .00002072  00000+0  84836-4 0  9999
2 59527  43.0022 141.8828 0001090 241.5907 118.4834 15.27560637 71954
STARLINK-31618          
1 59528U 24073T   25210.48831675  .00019140  00000+0  64003-3 0  9997
2 59528  43.0004 137.3564 0002330 175.0529 185.0347 15.30653502 72050
STARLINK-31513          
1 59529U 24073U   25210.13987424  .00001801  00000+0  74946-4 0  9997
2 59529  43.0011 137.2611 0001148 266.4915  93.5805 15.27589060 72023
STARLINK-31392          
1 59530U 24073V   25210.51629806  .00001011  00000+0  46251-4 0  9999
2 59530  43.0039 138.4220 0001083 272.6294  87.4434 15.27580850 73277
STARLINK-31619          
1 59531U 24073W   25210.50216793 -.00002192  00000+0 -70145-4 0  9998
2 59531  43.0032 138.3221 0000486 276.0135  84.0662 15.27587503 73165
STARLINK-31624          
1 59532U 24073X   25210.91668981  .00332919  00000+0  37845-2 0  9993
2 59532  42.9979 109.2279 0017882 232.5456 157.4092 15.60275882  5983
STARLINK-31509          
1 59533U 24073Y   25210.14968140  .00000906  00000+0  42434-4 0  9999
2 59533  43.0013 140.8428 0001275 267.6929  92.3777 15.27583410 71987
STARLINK-31734          
1 59534U 24074A   25210.22090375 -.00003157  00000+0 -10526-3 0  9995
2 59534  43.0020 154.6661 0000922 287.3227  72.7524 15.27582403 73138
STARLINK-31738          
1 59535U 24074B   25210.56483296  .00001970  00000+0  81119-4 0  9997
2 59535  43.0005 159.7855 0000917 271.5358  88.5389 15.27571855 71936
STARLINK-31721          
1 59536U 24074C   25210.56692914 -.00000440  00000+0 -64743-5 0  9995
2 59536  43.0006 163.3403 0000901 273.6877  86.3871 15.27585011 71896
STARLINK-31737          
1 59537U 24074D   25210.58106758  .00000409  00000+0  24381-4 0  9990
2 59537  43.0028 163.4522 0000948 271.0894  88.9849 15.27576404 73077
STARLINK-31725          
1 59538U 24074E   25210.19401399 -.00000200  00000+0  22678-5 0  9995
2 59538  43.0012 155.0382 0001035 268.5112  91.5621 15.27576738 71957
STARLINK-31539          
1 59539U 24074F   25210.59263078  .00002700  00000+0  10762-3 0  9995
2 59539  43.0037 163.5372 0002069 266.7700  93.2915 15.27580224 71892
STARLINK-31397          
1 59540U 24074G   25210.14906299  .00000847  00000+0  40297-4 0  9994
2 59540  43.0010 166.2223 0001195 261.6103  98.4613 15.27579078 71820
STARLINK-31481          
1 59541U 24074H   25210.22586748  .00002318  00000+0  93713-4 0  9993
2 59541  43.0009 165.0806 0001365 257.2484 102.8216 15.27585610 73016
STARLINK-31540          
1 59542U 24074J   25210.89771358  .00002094  00000+0  85577-4 0  9990
2 59542  43.0011 161.5231 0001116 278.7387  81.3338 15.27591044 71941
STARLINK-31574          
1 59543U 24074K   25210.59648989  .00000869  00000+0  41102-4 0  9995
2 59543  43.0016 163.5617 0001142 274.6258  85.4463 15.27576954 71899
